[{"OBJECT_NAME":"STARLINK-3796","OBJECT_ID":"2022-045AT","EPOCH":"2026-03-09T13:27:54.929088","MEAN_MOTION":15.08830421,"ECCENTRICITY":0.0001294,"INCLINATION":53.2176,"RA_OF_ASC_NODE":189.6983,"ARG_OF_PERICENTER":97.297,"MEAN_ANOMALY":262.8169,"EPHEMERIS_TYPE":0,"CLASSIFICATION_TYPE":"U","NORAD_CAT_ID":52372,"ELEMENT_SET_NO":999,"REV_AT_EPOCH":21589,"BSTAR":-6.5789e-6,"MEAN_MOTION_DOT":-3.93e-6,"MEAN_MOTION_DDOT":0},{"OBJECT_NAME":"CZ-6A DEB","OBJECT_ID":"2024-140AAN","EPOCH":"2026-03-09T15:08:07.195776","MEAN_MOTION":15.20547394,"ECCENTRICITY":0.0064261,"INCLINATION":89.3669,"RA_OF_ASC_NODE":306.3092,"ARG_OF_PERICENTER":93.6352,"MEAN_ANOMALY":267.2246,"EPHEMERIS_TYPE":0,"CLASSIFICATION_TYPE":"U","NORAD_CAT_ID":61480,"ELEMENT_SET_NO":999,"REV_AT_EPOCH":8198,"BSTAR":0.0033609,"MEAN_MOTION_DOT":0.00078405,"MEAN_MOTION_DDOT":0}]
